     2.100          NAVIGATION                              RINEX VERSION / TYPE
fic2rin                                 11/05/2013 00:14:39 PGM / RUN BY / DATE
                                                            END OF HEADER
14 13 11  4 20  0  0.0  .211544800550D-03 -.102318153949D-11  .000000000000D+00
     .970000000000D+02  .141093750000D+03  .432696594979D-08 -.493903921195D-01
     .740028917789D-05  .739733758382D-02  .644475221634D-05  .515358172798D+04
     .158400000000D+06 -.428408384323D-07 -.218102771347D+01  .633299350739D-07
     .972413653458D+00  .263218750000D+03 -.198933908960D+01 -.827141596625D-08
     .279297348141D-09  .100000000000D+01  .176500000000D+04  .000000000000D+00
     .340000000000D+01  .000000000000D+00 -.884756445885D-08  .970000000000D+02
     .151206000000D+06  .400000000000D+01
15 13 11  4 20  0  0.0 -.145457684994D-03 -.193267624127D-11  .000000000000D+00
     .520000000000D+02  .155781250000D+03  .494949188049D-08 -.526818900648D+00
     .800378620625D-05  .578633206896D-02  .700168311596D-05  .515359694099D+04
     .158400000000D+06  .152736902237D-06 -.228630198876D+01  .000000000000D+00
     .939101736054D+00  .233781250000D+03  .173321383097D+00 -.847785313661D-08
     .209294432239D-09  .100000000000D+01  .176500000000D+04  .000000000000D+00
     .240000000000D+01  .000000000000D+00 -.102445483208D-07  .520000000000D+02
     .151206000000D+06  .400000000000D+01
16 13 11  4 20  0  0.0 -.242719426751D-03  .102318153949D-11  .000000000000D+00
     .470000000000D+02 -.124718750000D+03  .358229207399D-08  .114122562961D+01
    -.636279582977D-05  .710520450957D-02  .105481594801D-04  .515374705696D+04
     .158400000000D+06 -.353902578354D-07 -.105362348810D+00  .113621354103D-06
     .986763340825D+00  .190656250000D+03  .133409746309D+00 -.757281543816D-08
    -.867893294096D-10  .100000000000D+01  .176500000000D+04  .000000000000D+00
     .240000000000D+01  .000000000000D+00 -.977888703346D-08  .470000000000D+02
     .151206000000D+06  .400000000000D+01
18 13 11  4 20  0  0.0  .283135101199D-03  .204636307899D-11  .000000000000D+00
     .320000000000D+02  .825000000000D+01  .515128600031D-08  .171995045975D+01
     .301748514175D-06  .145738043357D-01  .126492232084D-04  .515365238571D+04
     .158400000000D+06 -.329688191414D-06  .297846496559D+01 -.288709998131D-06
     .927032331280D+00  .120718750000D+03 -.207207810374D+01 -.826141554969D-08
    -.615382776020D-09  .100000000000D+01  .176500000000D+04  .000000000000D+00
     .240000000000D+01  .000000000000D+00 -.111758708954D-07  .320000000000D+02
     .151206000000D+06  .400000000000D+01
19 13 11  4 20  0  0.0 -.416265334934D-03 -.272848410532D-11  .000000000000D+00
     .890000000000D+02  .251250000000D+02  .459733435457D-08 -.670946368089D+00
     .141374766827D-05  .958676740993D-02  .859238207340D-05  .515375378036D+04
     .158400000000D+06  .154599547386D-06  .980296539251D+00  .372529029846D-08
     .963733115970D+00  .213718750000D+03  .394836878998D+00 -.809176562595D-08
     .699672001290D-09  .100000000000D+01  .176500000000D+04  .000000000000D+00
     .240000000000D+01  .000000000000D+00 -.149011611938D-07  .890000000000D+02
     .151206000000D+06  .400000000000D+01
20 13 11  4 20  0  0.0  .134437344968D-03  .284217094304D-11  .000000000000D+00
     .460000000000D+02  .750000000000D+01  .505842498942D-08  .220361837533D+01
     .279396772385D-06  .574202940334D-02  .116601586342D-04  .515365517426D+04
     .158400000000D+06 -.558793544769D-08  .292522369910D+01 -.745058059692D-07
     .927875073035D+00  .134593750000D+03  .128609736833D+01 -.812248119109D-08
    -.572881005651D-09  .100000000000D+01  .176500000000D+04  .000000000000D+00
     .240000000000D+01  .000000000000D+00 -.791624188423D-08  .460000000000D+02
     .151206000000D+06  .400000000000D+01
21 13 11  4 20  0  0.0 -.326916575432D-03 -.181898940355D-11  .000000000000D+00
     .290000000000D+02 -.195000000000D+02  .569095133668D-08  .274474595922D+01
    -.121071934700D-05  .206440482289D-01  .451505184174D-05  .515359621239D+04
     .158400000000D+06  .912696123123D-07  .193203594768D+01 -.264495611191D-06
     .931469743637D+00  .276281250000D+03 -.209367151337D+01 -.825748681461D-08
    -.185722021782D-09  .100000000000D+01  .176500000000D+04  .000000000000D+00
     .240000000000D+01  .000000000000D+00 -.111758708954D-07  .290000000000D+02
     .151206000000D+06  .400000000000D+01
22 13 11  4 20  0  0.0  .193399842829D-03  .204636307899D-11  .000000000000D+00
     .210000000000D+02  .415625000000D+01  .526914805259D-08  .114942989071D+01
     .314787030220D-06  .671882322058D-02  .122543424368D-04  .515365197945D+04
     .158400000000D+06 -.137835741043D-06  .298075396718D+01  .000000000000D+00
     .924792776325D+00  .126781250000D+03 -.204042409238D+01 -.838249202158D-08
    -.635026451401D-09  .100000000000D+01  .176500000000D+04  .000000000000D+00
     .240000000000D+01  .000000000000D+00 -.172294676304D-07  .210000000000D+02
     .151206000000D+06  .400000000000D+01
23 13 11  4 20  0  0.0  .330922193825D-04 -.341060513165D-11  .000000000000D+00
     .270000000000D+02  .132468750000D+03  .453126017375D-08 -.106902769803D+01
     .684894621372D-05  .884235347621D-02  .620447099209D-05  .515364538574D+04
     .158400000000D+06  .147148966789D-06 -.224269527984D+01 -.102445483208D-06
     .954062692038D+00  .255593750000D+03 -.281125281324D+01 -.822498546080D-08
     .252867675811D-09  .100000000000D+01  .176500000000D+04  .000000000000D+00
     .240000000000D+01  .000000000000D+00 -.200234353542D-07  .270000000000D+02
     .151206000000D+06  .400000000000D+01
24 13 11  4 20  0  0.0 -.167712569237D-04 -.682121026330D-12  .000000000000D+00
     .940000000000D+02 -.437500000000D+02  .487770317592D-08 -.158824490768D+01
    -.217370688915D-05  .126558227930D-02  .633299350739D-07  .515364431000D+04
     .158400000000D+06 -.119209289551D-06 -.121540016248D+01 -.167638063431D-07
     .957907449947D+00  .378687500000D+03  .903254995625D-01 -.863178812005D-08
    -.166792661870D-09  .100000000000D+01  .176500000000D+04  .000000000000D+00
     .340000000000D+01  .000000000000D+00  .279396772385D-08  .940000000000D+02
     .151206000000D+06  .400000000000D+01
25 13 11  4 20  0  0.0  .163806602359D-03  .341060513165D-11  .000000000000D+00
     .690000000000D+02 -.141937500000D+03  .379158650623D-08  .238342732174D+01
    -.724755227566D-05  .275766663253D-02  .105742365122D-04  .515370968819D+04
     .158400000000D+06  .353902578354D-07 -.163881721326D+00 -.391155481339D-07
     .974881022793D+00  .182187500000D+03  .696267079393D+00 -.773960810003D-08
    -.700029159024D-10  .100000000000D+01  .176500000000D+04  .000000000000D+00
     .240000000000D+01  .000000000000D+00  .558793544769D-08  .690000000000D+02
     .151206000000D+06  .400000000000D+01
26 13 11  4 20  0  0.0  .258049927652D-03 -.102318153949D-10  .000000000000D+00
     .550000000000D+02  .148437500000D+03  .420803242430D-08 -.106652165352D+01
     .800937414169D-05  .211188310059D-01  .507384538651D-05  .515369053841D+04
     .158400000000D+06  .149011611938D-07 -.215859972957D+01  .476837158203D-06
     .977197740825D+00  .293593750000D+03  .125407376973D+01 -.834177603988D-08
     .260010830495D-09  .100000000000D+01  .176500000000D+04  .000000000000D+00
     .240000000000D+01  .000000000000D+00 -.605359673500D-08  .550000000000D+02
     .151206000000D+06  .400000000000D+01
27 13 11  4 20  0  0.0 -.549494288862D-04 -.375166564481D-11  .000000000000D+00
     .280000000000D+02  .191562500000D+02  .453161733148D-08 -.442588507359D+00
     .103190541267D-05  .446443678811D-03  .968761742115D-05  .515366736984D+04
     .158400000000D+06  .409781932831D-07  .884588188729D+00 -.521540641785D-07
     .961274167190D+00  .194343750000D+03  .755027170689D+00 -.793640201157D-08
     .705743682771D-09  .100000000000D+01  .176500000000D+04  .000000000000D+00
     .240000000000D+01  .000000000000D+00  .186264514923D-08  .280000000000D+02
     .151206000000D+06  .400000000000D+01
28 13 11  4 20  0  0.0  .306141097099D-03  .306954461848D-11  .000000000000D+00
     .400000000000D+02 -.111750000000D+03  .372194074806D-08  .991075190923D+00
    -.589899718761D-05  .189799965592D-01  .117551535368D-04  .515366164780D+04
     .158400000000D+06 -.318512320518D-06 -.993269003355D-01 -.912696123123D-07
     .985241165786D+00  .171312500000D+03 -.175845451627D+01 -.790925802377D-08
    -.985755346381D-10  .100000000000D+01  .176500000000D+04  .000000000000D+00
     .240000000000D+01  .000000000000D+00 -.107102096081D-07  .400000000000D+02
     .151206000000D+06  .400000000000D+01
29 13 11  4 20  0  0.0  .484426971525D-03  .295585778076D-11  .000000000000D+00
     .730000000000D+02  .185312500000D+02  .443161316591D-08  .312144608750D+01
     .860542058945D-06  .140836520586D-02  .949949026108D-05  .515354918480D+04
     .158400000000D+06  .521540641785D-07  .937728278341D+00  .763684511185D-07
     .967270362647D+00  .196562500000D+03 -.103440223526D+01 -.786389899153D-08
     .777532387345D-09  .100000000000D+01  .176500000000D+04  .000000000000D+00
     .240000000000D+01  .000000000000D+00 -.931322574615D-08  .730000000000D+02
     .151206000000D+06  .400000000000D+01
31 13 11  4 20  0  0.0  .329119153321D-03  .682121026330D-12  .000000000000D+00
     .510000000000D+02 -.400312500000D+02  .440446917811D-08 -.259817907295D+01
    -.197999179363D-05  .806939532049D-02  .499188899994D-06  .515370092964D+04
     .158400000000D+06  .186264514923D-07 -.117891528402D+01  .189989805222D-06
     .979431324149D+00  .382187500000D+03 -.725721499796D+00 -.829391690350D-08
    -.191436545529D-09  .100000000000D+01  .176500000000D+04  .000000000000D+00
     .240000000000D+01  .000000000000D+00 -.130385160446D-07  .510000000000D+02
     .151206000000D+06  .400000000000D+01
